GLOBALSTAR M094         
1 39074U 13005C   24145.54165440 -.00000093  00000+0  57416-4 0  9996
2 39074  51.9964 285.4284 0000977 121.6839 238.4123 12.62266168523312
GLOBALSTAR M096         
1 39075U 13005D   24144.92130776 -.00000086  00000+0  10008-3 0  9999
2 39075  52.0091 335.5277 0001189 102.1952 257.9048 12.62266010522138
GLOBALSTAR M078         
1 39076U 13005E   24145.13291019 -.00000003  00000+0  56303-3 0  9999
2 39076  51.9888  59.9235 0001541  49.9647 310.1355 12.62276090520784
GLOBALSTAR M095         
1 39077U 13005F   24144.92101721 -.00000093  00000+0  60575-4 0  9992
2 39077  51.9816  57.9535 0001312  70.0270 290.0737 12.62266398520612
GLOBALSTAR M087         
1 52888U 22064A   24145.42166636 -.00000081  00000+0  89759-4 0  9996
2 52888  51.9761 291.2506 0008668 305.6509  54.3584 13.37574750 94344
